CCSDS_OEM_VERS = 1.0
CREATION_DATE  = 2017-05-11T11:19:57
ORIGINATOR     = GMAT USER

META_START
OBJECT_NAME          = MOPSSat_alt_35785_km_RAAN_90_127
OBJECT_ID            = SatId
CENTER_NAME          = Earth
REF_FRAME            = EME2000
TIME_SYSTEM          = UTC
START_TIME           = 2017-01-01T00:00:00.000
USEABLE_START_TIME   = 2017-01-01T00:00:00.000
USEABLE_STOP_TIME    = 2017-01-02T00:00:00.000
STOP_TIME            = 2017-01-02T00:00:00.000
INTERPOLATION        = Lagrange
INTERPOLATION_DEGREE = 7 
META_STOP


                                                                                   

2017-01-01T05:02:30.000  -4.015727830265148e+04  -1.485657937099892e+04   7.012215822857091e+02   1.514632533767445e-01  -3.023065633700915e+00  -2.624286337382666e-03
2017-01-01T05:02:40.000  -4.015575348043712e+04  -1.488680625524694e+04   7.011951615228985e+02   1.535009562451593e-01  -3.022310948005982e+00  -2.659862157475053e-03
2017-01-01T05:02:50.000  -4.015420828804686e+04  -1.491702558743344e+04   7.011683851213978e+02   1.555372879391131e-01  -3.021555208664279e+00  -2.695414064725306e-03
2017-01-01T05:03:00.000  -4.015264273919706e+04  -1.494723735689438e+04   7.011412533204149e+02   1.575722489335742e-01  -3.020798417482046e+00  -2.730942067424152e-03
2017-01-01T05:03:10.000  -4.015105684759943e+04  -1.497744155298127e+04   7.011137663590764e+02   1.596058397043154e-01  -3.020040576262759e+00  -2.766446173876364e-03
2017-01-01T05:03:20.000  -4.014945062695601e+04  -1.500763816516939e+04   7.010859244763418e+02   1.616380607352251e-01  -3.019281686804465e+00  -2.801926392528378e-03
2017-01-01T05:03:30.000  -4.014782409096207e+04  -1.503782718298546e+04   7.010577279110518e+02   1.636689125133976e-01  -3.018521750901536e+00  -2.837382731882602e-03
2017-01-01T05:03:40.000  -4.014617725330634e+04  -1.506800859600764e+04   7.010291769019333e+02   1.656983955291413e-01  -3.017760770344700e+00  -2.872815200497547e-03
2017-01-01T05:03:50.000  -4.014451012766629e+04  -1.509818239393721e+04   7.010002716875171e+02   1.677265102807583e-01  -3.016998746919173e+00  -2.908223807071285e-03
2017-01-01T05:04:00.000  -4.014282272771453e+04  -1.512834856649079e+04   7.009710125062494e+02   1.697532572673223e-01  -3.016235682407421e+00  -2.943608560315345e-03
2017-01-01T05:04:10.000  -4.014111506711959e+04  -1.515850710338953e+04   7.009413995965053e+02   1.717786369879528e-01  -3.015471578589450e+00  -2.978969468942059e-03
2017-01-01T05:04:20.000  -4.013938715954639e+04  -1.518865799432854e+04   7.009114331965965e+02   1.738026499397080e-01  -3.014706437243501e+00  -3.014306541627747e-03
2017-01-01T05:04:30.000  -4.013763901865910e+04  -1.521880122895333e+04   7.008811135448208e+02   1.758252966160644e-01  -3.013940260146748e+00  -3.049619786986190e-03
2017-01-01T05:04:40.000  -4.013587065811539e+04  -1.524893679694824e+04   7.008504408793628e+02   1.778465775128189e-01  -3.013173049073005e+00  -3.084909213671672e-03
2017-01-01T05:04:50.000  -4.013408209159164e+04  -1.527906468764004e+04   7.008194154387318e+02   1.798664931015855e-01  -3.012404805802956e+00  -3.120174829916267e-03
2017-01-01T05:05:00.000  -4.013227333275283e+04  -1.530918489047836e+04   7.007880374612386e+02   1.818850438619316e-01  -3.011635532111797e+00  -3.155416644090900e-03
2017-01-01T05:05:10.000  -4.013044439526351e+04  -1.533929739485692e+04   7.007563071851847e+02   1.839022302694061e-01  -3.010865229773825e+00  -3.190634664496325e-03
2017-01-01T05:05:20.000  -4.012859529274588e+04  -1.536940219080626e+04   7.007242248481384e+02   1.859180528419492e-01  -3.010093900544732e+00  -3.225828900173398e-03
2017-01-01T05:05:30.000  -4.012672603882139e+04  -1.539949926830262e+04   7.006917906876538e+02   1.879325120935785e-01  -3.009321546179264e+00  -3.260999360094466e-03
2017-01-01T05:05:40.000  -4.012483664710177e+04  -1.542958861742464e+04   7.006590049411145e+02   1.899456085449013e-01  -3.008548168427244e+00  -3.296146053346930e-03
2017-01-01T05:05:50.000  -4.012292713121048e+04  -1.545967022796262e+04   7.006258678461095e+02   1.919573426968507e-01  -3.007773769043444e+00  -3.331268988674696e-03
2017-01-01T05:06:00.000  -4.012099750476768e+04  -1.548974408970884e+04   7.005923796401672e+02   1.939677150502297e-01  -3.006998349780308e+00  -3.366368174819388e-03
2017-01-01T05:06:10.000  -4.011904778138883e+04  -1.551981019245715e+04   7.005585405607363e+02   1.959767261056319e-01  -3.006221912387890e+00  -3.401443620518972e-03
2017-01-01T05:06:20.000  -4.011707797470630e+04  -1.554986852571485e+04   7.005243508455569e+02   1.979843763442997e-01  -3.005444458621461e+00  -3.436495334173534e-03
2017-01-01T05:06:30.000  -4.011508809834151e+04  -1.557991907909112e+04   7.004898107321789e+02   1.999906662539673e-01  -3.004665990231330e+00  -3.471523324296500e-03
2017-01-01T05:06:40.000  -4.011307816591547e+04  -1.560996184214378e+04   7.004549204581458e+02   2.019955963186510e-01  -3.003886508966843e+00  -3.506527599336368e-03
2017-01-01T05:06:50.000  -4.011104819100358e+04  -1.563999680505734e+04   7.004196802602082e+02   2.039991670638966e-01  -3.003106016558795e+00  -3.541508168466715e-03
2017-01-01T05:07:00.000  -4.010899818718075e+04  -1.567002395796483e+04   7.003840903751066e+02   2.060013790115094e-01  -3.002324514737019e+00  -3.576465040795787e-03
2017-01-01T05:07:10.000  -4.010692816801139e+04  -1.570004329110126e+04   7.003481510394008e+02   2.080022326898084e-01  -3.001542005226425e+00  -3.611398225545559e-03
2017-01-01T05:07:20.000  -4.010483814707363e+04  -1.573005479441376e+04   7.003118624898862e+02   2.100017286075205e-01  -3.000758489757010e+00  -3.646307731595931e-03
2017-01-01T05:07:30.000  -4.010272813794212e+04  -1.576005845785119e+04   7.002752249632983e+02   2.119998672732075e-01  -2.999973970056460e+00  -3.681193567823901e-03
2017-01-01T05:07:40.000  -4.010059815418698e+04  -1.579005427136380e+04   7.002382386962938e+02   2.139966491951865e-01  -2.999188447850124e+00  -3.716055743102194e-03
2017-01-01T05:07:50.000  -4.009844820939690e+04  -1.582004222461576e+04   7.002009039258509e+02   2.159920748625051e-01  -2.998401924868683e+00  -3.750894265967101e-03
2017-01-01T05:08:00.000  -4.009627831714901e+04  -1.585002230737266e+04   7.001632208887465e+02   2.179861447706273e-01  -2.997614402837864e+00  -3.785709145066931e-03
2017-01-01T05:08:10.000  -4.009408849102068e+04  -1.587999450934576e+04   7.001251898217621e+02   2.199788594110939e-01  -2.996825883482557e+00  -3.820500388981488e-03
2017-01-01T05:08:20.000  -4.009187874453924e+04  -1.590995882087974e+04   7.000868109608084e+02   2.219702193172422e-01  -2.996036368508733e+00  -3.855268007020296e-03
2017-01-01T05:08:30.000  -4.008964909123220e+04  -1.593991523226306e+04   7.000480845418000e+02   2.239602250183492e-01  -2.995245859621568e+00  -3.890012008421975e-03
2017-01-01T05:08:40.000  -4.008739954461440e+04  -1.596986373390611e+04   7.000090108004304e+02   2.259488770514762e-01  -2.994454358520783e+00  -3.924732402561052e-03
2017-01-01T05:08:50.000  -4.008513011822176e+04  -1.599980431586196e+04   6.999695899727586e+02   2.279361759295587e-01  -2.993661866913172e+00  -3.959429198390828e-03
2017-01-01T05:09:00.000  -4.008284082558381e+04  -1.602973696822200e+04   6.999298222947320e+02   2.299221221677560e-01  -2.992868386502282e+00  -3.994102404903428e-03
2017-01-01T05:09:10.000  -4.008053168022992e+04  -1.605966168102453e+04   6.998897080022959e+02   2.319067162773658e-01  -2.992073918990800e+00  -4.028752031023541e-03
2017-01-01T05:09:20.000  -4.007820269568806e+04  -1.608957844429063e+04   6.998492473313696e+02   2.338899587682552e-01  -2.991278466079691e+00  -4.063378085650873e-03
2017-01-01T05:09:30.000  -4.007585388548231e+04  -1.611948724804046e+04   6.998084405178057e+02   2.358718501498894e-01  -2.990482029467695e+00  -4.097980577678101e-03
2017-01-01T05:09:40.000  -4.007348526313014e+04  -1.614938808232895e+04   6.997672877973393e+02   2.378523909336995e-01  -2.989684610850381e+00  -4.132559516032225e-03
2017-01-01T05:09:50.000  -4.007109684214214e+04  -1.617928093726302e+04   6.997257894055890e+02   2.398315816342664e-01  -2.988886211919767e+00  -4.167114909695215e-03
2017-01-01T05:10:00.000  -4.006868863601787e+04  -1.620916580303617e+04   6.996839455779775e+02   2.418094227715503e-01  -2.988086834363305e+00  -4.201646767742958e-03
2017-01-01T05:10:10.000  -4.006626065825370e+04  -1.623904266983789e+04   6.996417565498751e+02   2.437859148649180e-01  -2.987286479866350e+00  -4.236155099240969e-03
2017-01-01T05:10:20.000  -4.006381292230887e+04  -1.626891152824656e+04   6.995992225560044e+02   2.457610584590484e-01  -2.986485150101516e+00  -4.270639913696696e-03
2017-01-01T05:10:30.000  -4.006134544164623e+04  -1.629877236875310e+04   6.995563438311507e+02   2.477348540925002e-01  -2.985682846741553e+00  -4.305101220510726e-03
2017-01-01T05:10:40.000  -4.005885822971696e+04  -1.632862518194105e+04   6.995131206098966e+02   2.497073023095992e-01  -2.984879571454500e+00  -4.339539029184334e-03
2017-01-01T05:10:50.000  -4.005635130001871e+04  -1.635846995778852e+04   6.994695531276302e+02   2.516784036143085e-01  -2.984075325922463e+00  -4.373953348514056e-03
2017-01-01T05:11:00.000  -4.005382466603754e+04  -1.638830668636624e+04   6.994256416195407e+02   2.536481585163613e-01  -2.983270111822842e+00  -4.408344187397173e-03
2017-01-01T05:11:10.000  -4.005127834126289e+04  -1.641813535765727e+04   6.993813863208733e+02   2.556165675193351e-01  -2.982463930833183e+00  -4.442711554623478e-03
2017-01-01T05:11:20.000  -4.004871233914898e+04  -1.644795596203422e+04   6.993367874662607e+02   2.575836311522292e-01  -2.981656784618405e+00  -4.477055459426614e-03
2017-01-01T05:11:30.000  -4.004612667314617e+04  -1.647776848986522e+04   6.992918452902703e+02   2.595493499433740e-01  -2.980848674841333e+00  -4.511375911028537e-03
